{
  "norad_id": 65434,
  "name": "STARLINK-35142",
  "history": [
    {
      "epoch": "2026-03-28T19:53:01.875552Z",
      "apogee_km": 551.3489582973316,
      "perigee_km": 547.7353422989545,
      "latitude_deg": 5.523894543917519e-05,
      "longitude_deg": 178.67794109110397,
      "height_km": 552.3068477746307,
      "semi_major_axis_km": 6927.679150298143,
      "eccentricity": 0.00026081,
      "inclination_deg": 97.6002,
      "raan_deg": 303.1791,
      "arg_perigee_deg": 80.5653,
      "mean_anomaly_deg": 279.5869,
      "mean_motion_rev_day": 15.05639895
    },
    {
      "epoch": "2026-03-29T03:51:31.239072Z",
      "apogee_km": 551.8566150421593,
      "perigee_km": 547.0170119760414,
      "latitude_deg": -5.269238958173197e-05,
      "longitude_deg": 59.0598930814733,
      "height_km": 551.9507748635673,
      "semi_major_axis_km": 6927.5738135091,
      "eccentricity": 0.0003493,
      "inclination_deg": 97.6045,
      "raan_deg": 303.5109,
      "arg_perigee_deg": 76.9784,
      "mean_anomaly_deg": 283.1832,
      "mean_motion_rev_day": 15.05674236
    },
    {
      "epoch": "2026-03-30T02:11:16.870272Z",
      "apogee_km": 551.4803751858817,
      "perigee_km": 547.3695599143375,
      "latitude_deg": 2.1731148756338203e-05,
      "longitude_deg": 84.11752024123771,
      "height_km": 552.7074154556228,
      "semi_major_axis_km": 6927.561967550109,
      "eccentricity": 0.0002967,
      "inclination_deg": 97.6037,
      "raan_deg": 304.4257,
      "arg_perigee_deg": 96.2063,
      "mean_anomaly_deg": 263.9502,
      "mean_motion_rev_day": 15.05678098
    },
    {
      "epoch": "2026-03-30T02:11:16.871136Z",
      "apogee_km": 551.4802366346421,
      "perigee_km": 547.3696984655762,
      "latitude_deg": 2.4004344000091236e-05,
      "longitude_deg": 84.11751632958664,
      "height_km": 552.7074004733803,
      "semi_major_axis_km": 6927.561967550109,
      "eccentricity": 0.00029668,
      "inclination_deg": 97.6037,
      "raan_deg": 304.4257,
      "arg_perigee_deg": 96.2063,
      "mean_anomaly_deg": 263.9502,
      "mean_motion_rev_day": 15.05678098
    },
    {
      "epoch": "2026-03-30T13:21:10.817280Z",
      "apogee_km": 550.7569138265653,
      "perigee_km": 548.2554804209485,
      "latitude_deg": 4.570085573634412e-05,
      "longitude_deg": -83.35969125426283,
      "height_km": 552.4446597131515,
      "semi_major_axis_km": 6927.643197123757,
      "eccentricity": 0.00018054,
      "inclination_deg": 97.6019,
      "raan_deg": 304.8818,
      "arg_perigee_deg": 84.3192,
      "mean_anomaly_deg": 275.8241,
      "mean_motion_rev_day": 15.05651616
    },
    {
      "epoch": "2026-03-31T03:42:29.356416Z",
      "apogee_km": 550.6479385107496,
      "perigee_km": 548.4014363787437,
      "latitude_deg": 2.0522826257761647e-05,
      "longitude_deg": 61.31302136534214,
      "height_km": 552.4909527426483,
      "semi_major_axis_km": 6927.661687444746,
      "eccentricity": 0.00016214,
      "inclination_deg": 97.6015,
      "raan_deg": 305.4713,
      "arg_perigee_deg": 85.0805,
      "mean_anomaly_deg": 275.0607,
      "mean_motion_rev_day": 15.05645588
    },
    {
      "epoch": "2026-04-01T19:34:59.998944Z",
      "apogee_km": 550.5804550413804,
      "perigee_km": 548.4273442497706,
      "latitude_deg": 3.844093162753183e-05,
      "longitude_deg": -176.81477141040148,
      "height_km": 552.5215785957537,
      "semi_major_axis_km": 6927.640899645576,
      "eccentricity": 0.0001554,
      "inclination_deg": 97.6024,
      "raan_deg": 307.1088,
      "arg_perigee_deg": 87.6038,
      "mean_anomaly_deg": 272.5367,
      "mean_motion_rev_day": 15.05652365
    },
    {
      "epoch": "2026-04-02T21:06:11.730816Z",
      "apogee_km": 550.7351306488144,
      "perigee_km": 548.1913158468378,
      "latitude_deg": 9.343823840708233e-06,
      "longitude_deg": 160.38608439304056,
      "height_km": 552.3920297311099,
      "semi_major_axis_km": 6927.600223247826,
      "eccentricity": 0.0001836,
      "inclination_deg": 97.6028,
      "raan_deg": 308.1566,
      "arg_perigee_deg": 83.9794,
      "mean_anomaly_deg": 276.1642,
      "mean_motion_rev_day": 15.05665626
    },
    {
      "epoch": "2026-04-02T21:06:11.731680Z",
      "apogee_km": 550.7347842688032,
      "perigee_km": 548.1916622268491,
      "latitude_deg": 1.5041460404590424e-05,
      "longitude_deg": 160.38608002684185,
      "height_km": 552.3920660664771,
      "semi_major_axis_km": 6927.600223247826,
      "eccentricity": 0.00018355,
      "inclination_deg": 97.6028,
      "raan_deg": 308.1566,
      "arg_perigee_deg": 83.9794,
      "mean_anomaly_deg": 276.1642,
      "mean_motion_rev_day": 15.05665626
    },
    {
      "epoch": "2026-04-03T14:38:53.611872Z",
      "apogee_km": 550.759760760775,
      "perigee_km": 548.2034694917929,
      "latitude_deg": -8.180148387332953e-05,
      "longitude_deg": -102.78895405954025,
      "height_km": 552.6155567085293,
      "semi_major_axis_km": 6927.618615126284,
      "eccentricity": 0.0001845,
      "inclination_deg": 97.6023,
      "raan_deg": 308.8766,
      "arg_perigee_deg": 93.2155,
      "mean_anomaly_deg": 266.9282,
      "mean_motion_rev_day": 15.0565963
    },
    {
      "epoch": "2026-04-04T20:57:12.098016Z",
      "apogee_km": 550.9076212197233,
      "perigee_km": 548.1227050501438,
      "latitude_deg": -9.242255136418641e-05,
      "longitude_deg": 162.6343332192818,
      "height_km": 552.6222732304811,
      "semi_major_axis_km": 6927.652163134933,
      "eccentricity": 0.000201,
      "inclination_deg": 97.6021,
      "raan_deg": 310.1215,
      "arg_perigee_deg": 91.8588,
      "mean_anomaly_deg": 268.2868,
      "mean_motion_rev_day": 15.05648693
    },
    {
      "epoch": "2026-04-05T14:29:54.444768Z",
      "apogee_km": 550.89961901485,
      "perigee_km": 548.1436578553084,
      "latitude_deg": 3.882824459472072e-05,
      "longitude_deg": -100.5424817073859,
      "height_km": 552.607276087721,
      "semi_major_axis_km": 6927.658638435079,
      "eccentricity": 0.00019891,
      "inclination_deg": 97.6025,
      "raan_deg": 310.8417,
      "arg_perigee_deg": 90.9854,
      "mean_anomaly_deg": 269.1601,
      "mean_motion_rev_day": 15.05646582
    },
    {
      "epoch": "2026-04-05T20:52:42.479904Z",
      "apogee_km": 550.9123902270994,
      "perigee_km": 548.1094638758141,
      "latitude_deg": -5.134479838393934e-05,
      "longitude_deg": 163.75706569568845,
      "height_km": 552.5619042606005,
      "semi_major_axis_km": 6927.6479270514565,
      "eccentricity": 0.0002023,
      "inclination_deg": 97.6024,
      "raan_deg": 311.1034,
      "arg_perigee_deg": 89.5537,
      "mean_anomaly_deg": 270.5921,
      "mean_motion_rev_day": 15.05650074
    },
    {
      "epoch": "2026-04-06T03:15:30.470112Z",
      "apogee_km": 550.9311755711151,
      "perigee_km": 548.0678448487151,
      "latitude_deg": -3.867411753507096e-05,
      "longitude_deg": 68.05698706616526,
      "height_km": 552.5153771915482,
      "semi_major_axis_km": 6927.636510209915,
      "eccentricity": 0.00020666,
      "inclination_deg": 97.6026,
      "raan_deg": 311.3653,
      "arg_perigee_deg": 88.1611,
      "mean_anomaly_deg": 271.9852,
      "mean_motion_rev_day": 15.05653796
    },
    {
      "epoch": "2026-04-07T12:45:12.296448Z",
      "apogee_km": 551.0135001094786,
      "perigee_km": 547.9779500020131,
      "latitude_deg": 2.6083767396967035e-05,
      "longitude_deg": -74.36729042196895,
      "height_km": 552.5370646025311,
      "semi_major_axis_km": 6927.632725055745,
      "eccentricity": 0.00021909,
      "inclination_deg": 97.6027,
      "raan_deg": 312.7409,
      "arg_perigee_deg": 89.2359,
      "mean_anomaly_deg": 270.9119,
      "mean_motion_rev_day": 15.0565503
    },
    {
      "epoch": "2026-04-07T20:43:42.264768Z",
      "apogee_km": 551.0203546739822,
      "perigee_km": 547.9749664771925,
      "latitude_deg": 4.4959909516011436e-05,
      "longitude_deg": 166.00791684728765,
      "height_km": 552.5380858590142,
      "semi_major_axis_km": 6927.634660575587,
      "eccentricity": 0.0002198,
      "inclination_deg": 97.6028,
      "raan_deg": 313.0685,
      "arg_perigee_deg": 89.2047,
      "mean_anomaly_deg": 270.9432,
      "mean_motion_rev_day": 15.05654399
    },
    {
      "epoch": "2026-04-08T14:16:24.325536Z",
      "apogee_km": 551.1366731763119,
      "perigee_km": 547.8758314974366,
      "latitude_deg": -3.883083432406618e-05,
      "longitude_deg": -97.16747570553251,
      "height_km": 552.5827059524366,
      "semi_major_axis_km": 6927.643252336874,
      "eccentricity": 0.00023535,
      "inclination_deg": 97.6029,
      "raan_deg": 313.7889,
      "arg_perigee_deg": 90.5327,
      "mean_anomaly_deg": 269.6169,
      "mean_motion_rev_day": 15.05651598
    },
    {
      "epoch": "2026-04-09T12:36:12.385440Z",
      "apogee_km": 551.1626069864988,
      "perigee_km": 547.845652413599,
      "latitude_deg": 8.889491744211125e-06,
      "longitude_deg": -72.11789561641068,
      "height_km": 552.5177090292137,
      "semi_major_axis_km": 6927.641129700049,
      "eccentricity": 0.0002394,
      "inclination_deg": 97.6031,
      "raan_deg": 314.7058,
      "arg_perigee_deg": 88.3547,
      "mean_anomaly_deg": 271.7954,
      "mean_motion_rev_day": 15.0565229
    },
    {
      "epoch": "2026-04-10T12:31:42.453696Z",
      "apogee_km": 551.2063990337538,
      "perigee_km": 547.803541298008,
      "latitude_deg": 1.7866761384303557e-05,
      "longitude_deg": -70.99344944953175,
      "height_km": 552.4877463165491,
      "semi_major_axis_km": 6927.641970165881,
      "eccentricity": 0.0002456,
      "inclination_deg": 97.6033,
      "raan_deg": 315.6881,
      "arg_perigee_deg": 87.3624,
      "mean_anomaly_deg": 272.7884,
      "mean_motion_rev_day": 15.05652016
    },
    {
      "epoch": "2026-04-11T12:27:12.426048Z",
      "apogee_km": 551.2075887202418,
      "perigee_km": 547.7964192746731,
      "latitude_deg": 5.947045654058966e-05,
      "longitude_deg": -69.86820624138808,
      "height_km": 552.4723520901192,
      "semi_major_axis_km": 6927.639003997457,
      "eccentricity": 0.0002462,
      "inclination_deg": 97.6035,
      "raan_deg": 316.6708,
      "arg_perigee_deg": 86.9516,
      "mean_anomaly_deg": 273.1993,
      "mean_motion_rev_day": 15.05652983
    },
    {
      "epoch": "2026-04-12T20:21:12.464352Z",
      "apogee_km": 551.2174528839296,
      "perigee_km": 547.7957511560207,
      "latitude_deg": -1.2142646302803329e-05,
      "longitude_deg": 171.6316555995407,
      "height_km": 552.4613093442597,
      "semi_major_axis_km": 6927.643602019975,
      "eccentricity": 0.00024696,
      "inclination_deg": 97.6035,
      "raan_deg": 317.9809,
      "arg_perigee_deg": 86.4365,
      "mean_anomaly_deg": 273.7144,
      "mean_motion_rev_day": 15.05651484
    },
    {
      "epoch": "2026-04-14T20:12:12.364128Z",
      "apogee_km": 551.2135634403994,
      "perigee_km": 547.7913095587683,
      "latitude_deg": 1.1294795993069281e-05,
      "longitude_deg": 173.88214334119476,
      "height_km": 552.432978403271,
      "semi_major_axis_km": 6927.639436499583,
      "eccentricity": 0.000247,
      "inclination_deg": 97.6025,
      "raan_deg": 319.9461,
      "arg_perigee_deg": 85.6251,
      "mean_anomaly_deg": 274.5258,
      "mean_motion_rev_day": 15.05652842
    },
    {
      "epoch": "2026-04-15T20:07:42.341664Z",
      "apogee_km": 551.1571367048173,
      "perigee_km": 547.8540367194737,
      "latitude_deg": 9.994186779840952e-06,
      "longitude_deg": 175.00747445165607,
      "height_km": 552.429062248635,
      "semi_major_axis_km": 6927.642586712145,
      "eccentricity": 0.0002384,
      "inclination_deg": 97.6035,
      "raan_deg": 320.9289,
      "arg_perigee_deg": 85.2166,
      "mean_anomaly_deg": 274.9333,
      "mean_motion_rev_day": 15.05651815
    }
  ]
}